$$SOE
2461281.500000000, A.D. 2026-Aug-29 00:00:00.0000, -6.408681152081804E+09, -6.925529068347123E+08, -4.892042672495610E+07,
2461288.500000000, A.D. 2026-Sep-05 00:00:00.0000, -6.408409098589108E+09, -6.953084793933055E+08, -4.882968889339212E+07,
2461295.500000000, A.D. 2026-Sep-12 00:00:00.0000, -6.408135853594278E+09, -6.980639749502261E+08, -4.873894239655697E+07,
2461302.500000000, A.D. 2026-Sep-19 00:00:00.0000, -6.407861418715462E+09, -7.008193939890354E+08, -4.864818709785047E+07,
2461309.500000000, A.D. 2026-Sep-26 00:00:00.0000, -6.407585795192570E+09, -7.035747375755317E+08, -4.855742290875140E+07,
2461316.500000000, A.D. 2026-Oct-03 00:00:00.0000, -6.407308983817037E+09, -7.063300071223871E+08, -4.846664977913922E+07,
2461323.500000000, A.D. 2026-Oct-10 00:00:00.0000, -6.407030984948174E+09, -7.090852042464671E+08, -4.837586768817091E+07,
2461330.500000000, A.D. 2026-Oct-17 00:00:00.0000, -6.406751798564445E+09, -7.118403306997036E+08, -4.828507663882390E+07,
2461337.500000000, A.D. 2026-Oct-24 00:00:00.0000, -6.406471424325309E+09, -7.145953883960422E+08, -4.819427666008916E+07,
2461344.500000000, A.D. 2026-Oct-31 00:00:00.0000, -6.406189861544860E+09, -7.173503796011271E+08, -4.810346783119741E+07,
2461351.500000000, A.D. 2026-Nov-07 00:00:00.0000, -6.405907108738165E+09, -7.201053072106141E+08, -4.801265035276270E+07,
2461358.500000000, A.D. 2026-Nov-14 00:00:00.0000, -6.405623162539472E+09, -7.228601742296908E+08, -4.792182461054203E+07,
2461365.500000000, A.D. 2026-Nov-21 00:00:00.0000, -6.405338017804006E+09, -7.256149817719455E+08, -4.783099100968367E+07,
2461372.500000000, A.D. 2026-Nov-28 00:00:00.0000, -6.405051669891452E+09, -7.283697285856214E+08, -4.774014973349008E+07,
2461379.500000000, A.D. 2026-Dec-05 00:00:00.0000, -6.404764115511604E+09, -7.311244127636113E+08, -4.764930081201994E+07,
2461386.500000000, A.D. 2026-Dec-12 00:00:00.0000, -6.404475351967227E+09, -7.338790325261860E+08, -4.755844426113060E+07,
2461393.500000000, A.D. 2026-Dec-19 00:00:00.0000, -6.404185376681425E+09, -7.366335860700502E+08, -4.746758011807838E+07,
2461400.500000000, A.D. 2026-Dec-26 00:00:00.0000, -6.403894187151925E+09, -7.393880713517901E+08, -4.737670843133435E+07,
2461407.500000000, A.D. 2027-Jan-02 00:00:00.0000, -6.403601781056717E+09, -7.421424859967473E+08, -4.728582924534768E+07,
2461414.500000000, A.D. 2027-Jan-09 00:00:00.0000, -6.403308156394698E+09, -7.448968273133315E+08, -4.719494258920324E+07,
2461421.500000000, A.D. 2027-Jan-16 00:00:00.0000, -6.403013311627062E+09, -7.476510924041578E+08, -4.710404847162655E+07,
2461428.500000000, A.D. 2027-Jan-23 00:00:00.0000, -6.402717245774814E+09, -7.504052784138513E+08, -4.701314688976708E+07,
2461435.500000000, A.D. 2027-Jan-30 00:00:00.0000, -6.402419958286325E+09, -7.531593829614866E+08, -4.692223787291703E+07,
2461442.500000000, A.D. 2027-Feb-06 00:00:00.0000, -6.402121448251815E+09, -7.559134044177840E+08, -4.683132157242388E+07,
2461449.500000000, A.D. 2027-Feb-13 00:00:00.0000, -6.401821713426635E+09, -7.586673408075240E+08, -4.674039825603318E+07,
2461456.500000000, A.D. 2027-Feb-20 00:00:00.0000, -6.401520751428560E+09, -7.614211881282696E+08, -4.664946805467445E+07,
2461463.500000000, A.D. 2027-Feb-27 00:00:00.0000, -6.401218561714108E+09, -7.641749412991153E+08, -4.655853085254771E+07,
2461470.500000000, A.D. 2027-Mar-06 00:00:00.0000, -6.400915145316410E+09, -7.669285958169076E+08, -4.646758644040668E+07,
2461477.500000000, A.D. 2027-Mar-13 00:00:00.0000, -6.400610503945145E+09, -7.696821480704768E+08, -4.637663461797470E+07,
2461484.500000000, A.D. 2027-Mar-20 00:00:00.0000, -6.400304639578120E+09, -7.724355951475326E+08, -4.628567521029788E+07,
2461491.500000000, A.D. 2027-Mar-27 00:00:00.0000, -6.399997554342542E+09, -7.751889346831548E+08, -4.619470806156421E+07,
2461498.500000000, A.D. 2027-Apr-03 00:00:00.0000, -6.399689250483044E+09, -7.779421647976260E+08, -4.610373302900821E+07,
2461505.500000000, A.D. 2027-Apr-10 00:00:00.0000, -6.399379730355271E+09, -7.806952841005322E+08, -4.601274998070842E+07,
2461512.500000000, A.D. 2027-Apr-17 00:00:00.0000, -6.399068996422923E+09, -7.834482917754548E+08, -4.592175880051696E+07,
2461519.500000000, A.D. 2027-Apr-24 00:00:00.0000, -6.398757051179032E+09, -7.862011878074042E+08, -4.583075941249359E+07,
2461526.500000000, A.D. 2027-May-01 00:00:00.0000, -6.398443896691879E+09, -7.889539733251891E+08, -4.573975185005647E+07,
2461533.500000000, A.D. 2027-May-08 00:00:00.0000, -6.398129533468113E+09, -7.917066503103251E+08, -4.564873633687150E+07,
2461540.500000000, A.D. 2027-May-15 00:00:00.0000, -6.397813960129970E+09, -7.944592197190540E+08, -4.555771316425532E+07,
2461547.500000000, A.D. 2027-May-22 00:00:00.0000, -6.397497175470460E+09, -7.972116806090672E+08, -4.546668243342006E+07,
2461554.500000000, A.D. 2027-May-29 00:00:00.0000, -6.397179179530558E+09, -7.999640317391992E+08, -4.537564409028018E+07,
2461561.500000000, A.D. 2027-Jun-05 00:00:00.0000, -6.396859972813612E+09, -8.027162725103307E+08, -4.528459807794523E+07,
2461568.500000000, A.D. 2027-Jun-12 00:00:00.0000, -6.396539555644466E+09, -8.054684028157196E+08, -4.519354438737684E+07,
2461575.500000000, A.D. 2027-Jun-19 00:00:00.0000, -6.396217928004313E+09, -8.082204227357578E+08, -4.510248305211848E+07,
2461582.500000000, A.D. 2027-Jun-26 00:00:00.0000, -6.395895089561875E+09, -8.109723323384802E+08, -4.501141413389748E+07,
2461589.500000000, A.D. 2027-Jul-03 00:00:00.0000, -6.395571039768802E+09, -8.137241315775180E+08, -4.492033771032828E+07,
2461596.500000000, A.D. 2027-Jul-10 00:00:00.0000, -6.395245777982385E+09, -8.164758202787806E+08, -4.482925386714435E+07,
2461603.500000000, A.D. 2027-Jul-17 00:00:00.0000, -6.394919303579314E+09, -8.192273982547239E+08, -4.473816270121795E+07,
2461610.500000000, A.D. 2027-Jul-24 00:00:00.0000, -6.394591615903986E+09, -8.219788656090105E+08, -4.464706435359943E+07,
2461617.500000000, A.D. 2027-Jul-31 00:00:00.0000, -6.394262713639977E+09, -8.247302229960454E+08, -4.455595909084040E+07,
2461624.500000000, A.D. 2027-Aug-07 00:00:00.0000, -6.393932593805387E+09, -8.274814706836635E+08, -4.446484732188308E+07,
2461631.500000000, A.D. 2027-Aug-14 00:00:00.0000, -6.393601252673156E+09, -8.302326066722823E+08, -4.437372936006093E+07,
2461638.500000000, A.D. 2027-Aug-21 00:00:00.0000, -6.393268687998171E+09, -8.329836272346919E+08, -4.428260526180309E+07,
2461645.500000000, A.D. 2027-Aug-28 00:00:00.0000, -6.392934899120074E+09, -8.357345286732736E+08, -4.419147495842904E+07,
2461652.500000000, A.D. 2027-Sep-04 00:00:00.0000, -6.392599886122929E+09, -8.384853077923403E+08, -4.410033836832613E+07,
2461659.500000000, A.D. 2027-Sep-11 00:00:00.0000, -6.392263649447052E+09, -8.412359617468981E+08, -4.400919541578144E+07,
2461666.500000000, A.D. 2027-Sep-18 00:00:00.0000, -6.391926189819840E+09, -8.439864879179038E+08, -4.391804602206349E+07,
2461673.500000000, A.D. 2027-Sep-25 00:00:00.0000, -6.391587508276711E+09, -8.467368838914213E+08, -4.382689009634900E+07,
2461680.500000000, A.D. 2027-Oct-02 00:00:00.0000, -6.391247606197107E+09, -8.494871475137773E+08, -4.373572753139377E+07,
2461687.500000000, A.D. 2027-Oct-09 00:00:00.0000, -6.390906485333045E+09, -8.522372770268204E+08, -4.364455820662934E+07,
2461694.500000000, A.D. 2027-Oct-16 00:00:00.0000, -6.390564147766935E+09, -8.549872713377464E+08, -4.355338200918877E+07,
2461701.500000000, A.D. 2027-Oct-23 00:00:00.0000, -6.390220595538671E+09, -8.577371304287815E+08, -4.346219889735121E+07,
2461708.500000000, A.D. 2027-Oct-30 00:00:00.0000, -6.389875829567136E+09, -8.604868552960553E+08, -4.337100899103689E+07,
2461715.500000000, A.D. 2027-Nov-06 00:00:00.0000, -6.389529849029449E+09, -8.632364462892275E+08, -4.327981249055213E+07,
2461722.500000000, A.D. 2027-Nov-13 00:00:00.0000, -6.389182653183325E+09, -8.659859019278607E+08, -4.318860941122961E+07,
2461729.500000000, A.D. 2027-Nov-20 00:00:00.0000, -6.388834242730604E+09, -8.687352203802377E+08, -4.309739957876360E+07,
2461736.500000000, A.D. 2027-Nov-27 00:00:00.0000, -6.388484619104370E+09, -8.714844006400489E+08, -4.300618279130948E+07,
2461743.500000000, A.D. 2027-Dec-04 00:00:00.0000, -6.388133783703191E+09, -8.742334424869305E+08, -4.291495888802439E+07,
2461750.500000000, A.D. 2027-Dec-11 00:00:00.0000, -6.387781737623055E+09, -8.769823461947517E+08, -4.282372775228411E+07,
2461757.500000000, A.D. 2027-Dec-18 00:00:00.0000, -6.387428481612019E+09, -8.797311123266463E+08, -4.273248930243117E+07,
2461764.500000000, A.D. 2027-Dec-25 00:00:00.0000, -6.387074016095562E+09, -8.824797416188549E+08, -4.264124348407924E+07,
2461771.500000000, A.D. 2028-Jan-01 00:00:00.0000, -6.386718341231276E+09, -8.852282349386814E+08, -4.254999026647747E+07,
$$EOE